[{"OBJECT_NAME":"WILDFIRE 6","OBJECT_ID":"2023-133G","EPOCH":"2026-03-09T22:36:17.475552","MEAN_MOTION":13.85319465,"ECCENTRICITY":0.0004585,"INCLINATION":80.992,"RA_OF_ASC_NODE":102.4593,"ARG_OF_PERICENTER":287.0723,"MEAN_ANOMALY":72.9931,"EPHEMERIS_TYPE":0,"CLASSIFICATION_TYPE":"U","NORAD_CAT_ID":57763,"ELEMENT_SET_NO":999,"REV_AT_EPOCH":12727,"BSTAR":5.6844456e-5,"MEAN_MOTION_DOT":7.6e-7,"MEAN_MOTION_DDOT":0},{"OBJECT_NAME":"COSMOS 970 DEB","OBJECT_ID":"1977-121E","EPOCH":"2026-03-09T14:51:19.311264","MEAN_MOTION":13.92603999,"ECCENTRICITY":0.0103183,"INCLINATION":65.844,"RA_OF_ASC_NODE":250.048,"ARG_OF_PERICENTER":344.4833,"MEAN_ANOMALY":15.3081,"EPHEMERIS_TYPE":0,"CLASSIFICATION_TYPE":"U","NORAD_CAT_ID":10563,"ELEMENT_SET_NO":999,"REV_AT_EPOCH":42342,"BSTAR":0.00095655,"MEAN_MOTION_DOT":1.207e-5,"MEAN_MOTION_DDOT":0}]
